[{"OBJECT_NAME":"LEO 1 (LEO VANTAGE 1)","OBJECT_ID":"2018-004C","EPOCH":"2026-03-09T16:57:06.140448","MEAN_MOTION":14.67184901,"ECCENTRICITY":0.03529424,"INCLINATION":99.2469,"RA_OF_ASC_NODE":334.0284,"ARG_OF_PERICENTER":24.854,"MEAN_ANOMALY":336.9207,"EPHEMERIS_TYPE":0,"CLASSIFICATION_TYPE":"U","NORAD_CAT_ID":43113,"ELEMENT_SET_NO":999,"REV_AT_EPOCH":42289,"BSTAR":0.000396029,"MEAN_MOTION_DOT":5.709e-5,"MEAN_MOTION_DDOT":0},{"OBJECT_NAME":"STARLINK-35740","OBJECT_ID":"2025-244E","EPOCH":"2026-03-09T18:15:21.503520","MEAN_MOTION":15.30219277,"ECCENTRICITY":0.00013531,"INCLINATION":53.1592,"RA_OF_ASC_NODE":229.3552,"ARG_OF_PERICENTER":59.526,"MEAN_ANOMALY":300.5874,"EPHEMERIS_TYPE":0,"CLASSIFICATION_TYPE":"U","NORAD_CAT_ID":66210,"ELEMENT_SET_NO":999,"REV_AT_EPOCH":2167,"BSTAR":0.00033890228,"MEAN_MOTION_DOT":9.697e-5,"MEAN_MOTION_DDOT":0}]
